{
"type": "FeatureCollection",
"name": "centroids",
"crs": { "type": "name", "properties": { "name": "urn:ogc:def:crs:EPSG::3576" } },
"features": [
{ "type": "Feature", "properties": { "iso_3166_2": "RU-AL", "name_ru": "Республика Алтай" }, "geometry": { "type": "Point", "coordinates": [ -222926.970727293228265, -4289537.179115046747029 ] } },
{ "type": "Feature", "properties": { "iso_3166_2": "RU-PSK", "name_ru": "Псковская область" }, "geometry": { "type": "Point", "coordinates": [ -3147868.344414870720357, -1761919.649228279944509 ] } },
{ "type": "Feature", "properties": { "iso_3166_2": "RU-KDA", "name_ru": "Краснодарский край" }, "geometry": { "type": "Point", "coordinates": [ -3753946.615661259740591, -3090714.171678849495947 ] } },
{ "type": "Feature", "properties": { "iso_3166_2": "RU-KC", "name_ru": "Карачаево-Черкесия" }, "geometry": { "type": "Point", "coordinates": [ -3743212.039955689106137, -3339655.842022019904107 ] } },
{ "type": "Feature", "properties": { "iso_3166_2": "RU-KB", "name_ru": "Кабардино-Балкария" }, "geometry": { "type": "Point", "coordinates": [ -3665286.197845154907554, -3465751.967678071465343 ] } },
{ "type": "Feature", "properties": { "iso_3166_2": "RU-SE", "name_ru": "Республика Северная Осетия-Алания" }, "geometry": { "type": "Point", "coordinates": [ -3640938.465395769104362, -3548446.57942870631814 ] } },
{ "type": "Feature", "properties": { "iso_3166_2": "RU-IN", "name_ru": "Ингушетия" }, "geometry": { "type": "Point", "coordinates": [ -3597192.080287721008062, -3581313.041685740929097 ] } },
{ "type": "Feature", "properties": { "iso_3166_2": "RU-CE", "name_ru": "Чечня" }, "geometry": { "type": "Point", "coordinates": [ -3533459.711180610582232, -3626228.57018083659932 ] } },
{ "type": "Feature", "properties": { "iso_3166_2": "RU-DA", "name_ru": "Дагестан" }, "geometry": { "type": "Point", "coordinates": [ -3481273.7250080476515, -3716403.770442712586373 ] } },
{ "type": "Feature", "properties": { "iso_3166_2": "RU-MUR", "name_ru": "Мурманская область" }, "geometry": { "type": "Point", "coordinates": [ -2026005.21906506549567, -1397664.081549169728532 ] } },
{ "type": "Feature", "properties": { "iso_3166_2": "RU-KR", "name_ru": "Республика Карелия" }, "geometry": { "type": "Point", "coordinates": [ -2450614.614866723772138, -1599024.644233928062022 ] } },
{ "type": "Feature", "properties": { "iso_3166_2": "RU-LEN", "name_ru": "Ленинградская область" }, "geometry": { "type": "Point", "coordinates": [ -2815095.840327982790768, -1739239.350870853057131 ] } },
{ "type": "Feature", "properties": { "iso_3166_2": "RU-KGD", "name_ru": "Калининградская область" }, "geometry": { "type": "Point", "coordinates": [ -3607421.925687552895397, -1412737.920194674748927 ] } },
{ "type": "Feature", "properties": { "iso_3166_2": "RU-SMO", "name_ru": "Смоленская область" }, "geometry": { "type": "Point", "coordinates": [ -3228799.155035302042961, -2096263.338270364329219 ] } },
{ "type": "Feature", "properties": { "iso_3166_2": "RU-BRY", "name_ru": "Брянская область" }, "geometry": { "type": "Point", "coordinates": [ -3394244.040104103740305, -2238505.87014756957069 ] } },
{ "type": "Feature", "properties": { "iso_3166_2": "RU-KRS", "name_ru": "Курская область" }, "geometry": { "type": "Point", "coordinates": [ -3391063.802683106157929, -2470595.531905086711049 ] } },
{ "type": "Feature", "properties": { "iso_3166_2": "RU-BEL", "name_ru": "Белгородская область" }, "geometry": { "type": "Point", "coordinates": [ -3414034.429550878703594, -2617101.870838690083474 ] } },
{ "type": "Feature", "properties": { "iso_3166_2": "RU-VOR", "name_ru": "Воронежская область" }, "geometry": { "type": "Point", "coordinates": [ -3260255.527160533703864, -2756874.559197588358074 ] } },
{ "type": "Feature", "properties": { "iso_3166_2": "RU-ROS", "name_ru": "Ростовская область" }, "geometry": { "type": "Point", "coordinates": [ -3459789.129006632603705, -3040450.638976686168462 ] } },
{ "type": "Feature", "properties": { "iso_3166_2": "RU-BU", "name_ru": "Бурятия" }, "geometry": { "type": "Point", "coordinates": [ 1333252.33319291821681, -3769557.530609483830631 ] } },
{ "type": "Feature", "properties": { "iso_3166_2": "RU-TY", "name_ru": "Тыва" }, "geometry": { "type": "Point", "coordinates": [ 351004.04771761095617, -4191241.702945968601853 ] } },
{ "type": "Feature", "properties": { "iso_3166_2": "RU-ZAB", "name_ru": "Забайкальский край" }, "geometry": { "type": "Point", "coordinates": [ 1798150.29985473304987, -3654772.012936644256115 ] } },
{ "type": "Feature", "properties": { "iso_3166_2": "RU-AMU", "name_ru": "Амурская область" }, "geometry": { "type": "Point", "coordinates": [ 2456221.87440514145419, -3174556.89557698648423 ] } },
{ "type": "Feature", "properties": { "iso_3166_2": "RU-YEV", "name_ru": "Еврейская автономная область" }, "geometry": { "type": "Point", "coordinates": [ 3043607.095910131465644, -3349247.971569978632033 ] } },
{ "type": "Feature", "properties": { "iso_3166_2": "RU-KHA", "name_ru": "Хабаровский край" }, "geometry": { "type": "Point", "coordinates": [ 3089715.298719921149313, -2905223.75001449836418 ] } },
{ "type": "Feature", "properties": { "iso_3166_2": "RU-PRI", "name_ru": "Приморский край" }, "geometry": { "type": "Point", "coordinates": [ 3427458.686303812079132, -3462893.951123950537294 ] } },
{ "type": "Feature", "properties": { "iso_3166_2": "RU-TYU", "name_ru": "Тюменская область" }, "geometry": { "type": "Point", "coordinates": [ -1267519.598510355455801, -3325116.749436373822391 ] } },
{ "type": "Feature", "properties": { "iso_3166_2": "RU-KGN", "name_ru": "Курганская область" }, "geometry": { "type": "Point", "coordinates": [ -1616420.491385543718934, -3435691.006540989037603 ] } },
{ "type": "Feature", "properties": { "iso_3166_2": "RU-OMS", "name_ru": "Омская область" }, "geometry": { "type": "Point", "coordinates": [ -1068279.003582838922739, -3570190.102608229033649 ] } },
{ "type": "Feature", "properties": { "iso_3166_2": "RU-NVS", "name_ru": "Новосибирская область" }, "geometry": { "type": "Point", "coordinates": [ -678233.333885482745245, -3753799.083941496908665 ] } },
{ "type": "Feature", "properties": { "iso_3166_2": "RU-CHE", "name_ru": "Челябинская область" }, "geometry": { "type": "Point", "coordinates": [ -1928288.588682594476268, -3393041.31342835072428 ] } },
{ "type": "Feature", "properties": { "iso_3166_2": "RU-ALT", "name_ru": "Республика Алтай" }, "geometry": { "type": "Point", "coordinates": [ -527180.726349808974192, -4063534.102800250984728 ] } },
{ "type": "Feature", "properties": { "iso_3166_2": "RU-ORE", "name_ru": "Оренбургская область" }, "geometry": { "type": "Point", "coordinates": [ -2350175.410979978740215, -3435409.360645734705031 ] } },
{ "type": "Feature", "properties": { "iso_3166_2": "RU-SAR", "name_ru": "Саратовская область" }, "geometry": { "type": "Point", "coordinates": [ -2879061.65322248544544, -3065193.519862942863256 ] } },
{ "type": "Feature", "properties": { "iso_3166_2": "RU-AST", "name_ru": "Астраханская область" }, "geometry": { "type": "Point", "coordinates": [ -3166353.985255918465555, -3428166.584159267600626 ] } },
{ "type": "Feature", "properties": { "iso_3166_2": "RU-VGG", "name_ru": "Волгоградская область" }, "geometry": { "type": "Point", "coordinates": [ -3165165.664599587675184, -3072641.60434664785862 ] } },
{ "type": "Feature", "properties": { "iso_3166_2": "RU-35", "name_ru": "Автономная Республика Крым" }, "geometry": { "type": "Point", "coordinates": [ -4008300.355044351425022, -2741041.343821350019425 ] } },
{ "type": "Feature", "properties": { "iso_3166_2": "RU-MAG", "name_ru": "Магаданская область" }, "geometry": { "type": "Point", "coordinates": [ 2711795.10843643033877, -1323584.151314896298572 ] } },
{ "type": "Feature", "properties": { "iso_3166_2": "RU-SAK", "name_ru": "Сахалинская область" }, "geometry": { "type": "Point", "coordinates": [ 3459829.360128520056605, -2615417.456666165031493 ] } },
{ "type": "Feature", "properties": { "iso_3166_2": "RU-67", "name_ru": "Севастополь" }, "geometry": { "type": "Point", "coordinates": [ -4106591.424811887089163, -2731084.54416307201609 ] } },
{ "type": "Feature", "properties": { "iso_3166_2": "RU-CHU", "name_ru": "Чукотский автономный округ" }, "geometry": { "type": "Point", "coordinates": [ 2457728.080618259496987, -754372.223391564097255 ] } },
{ "type": "Feature", "properties": { "iso_3166_2": "RU-YAN", "name_ru": "Ямало-Ненецкий автономный округ" }, "geometry": { "type": "Point", "coordinates": [ -676816.226198282674886, -2442381.645987287629396 ] } },
{ "type": "Feature", "properties": { "iso_3166_2": "RU-NEN", "name_ru": "Ненецкий автономный округ" }, "geometry": { "type": "Point", "coordinates": [ -1409769.67933739325963, -2008219.778330952627584 ] } },
{ "type": "Feature", "properties": { "iso_3166_2": "RU-SA", "name_ru": "Якутия" }, "geometry": { "type": "Point", "coordinates": [ 1700651.997997789643705, -2018887.86723786755465 ] } },
{ "type": "Feature", "properties": { "iso_3166_2": "RU-SPE", "name_ru": "Санкт-Петербург" }, "geometry": { "type": "Point", "coordinates": [ -2870408.746228897944093, -1669638.327428649878129 ] } },
{ "type": "Feature", "properties": { "iso_3166_2": "RU-ARK", "name_ru": "Архангельская область" }, "geometry": { "type": "Point", "coordinates": [ -2175680.970908016432077, -1997396.806921647395939 ] } },
{ "type": "Feature", "properties": { "iso_3166_2": "RU-KYA", "name_ru": "Красноярский край" }, "geometry": { "type": "Point", "coordinates": [ 261151.770912275911542, -2485197.266777934506536 ] } },
{ "type": "Feature", "properties": { "iso_3166_2": "RU-KL", "name_ru": "Калмыкия" }, "geometry": { "type": "Point", "coordinates": [ -3333487.177013535052538, -3370665.124961463268846 ] } },
{ "type": "Feature", "properties": { "iso_3166_2": "RU-KAM", "name_ru": "Камчатский край" }, "geometry": { "type": "Point", "coordinates": [ 3494745.780954448040575, -1333984.810105687938631 ] } },
{ "type": "Feature", "properties": { "iso_3166_2": "RU-BA", "name_ru": "Башкортостан" }, "geometry": { "type": "Point", "coordinates": [ -2163618.115382213611156, -3270556.111800848972052 ] } },
{ "type": "Feature", "properties": { "iso_3166_2": "RU-SVE", "name_ru": "Свердловская область" }, "geometry": { "type": "Point", "coordinates": [ -1649752.016481405356899, -3042308.643775297794491 ] } },
{ "type": "Feature", "properties": { "iso_3166_2": "RU-KHM", "name_ru": "Ханты-Мансийский автономный округ — Югра" }, "geometry": { "type": "Point", "coordinates": [ -1048232.270859301439486, -2926350.775868892669678 ] } },
{ "type": "Feature", "properties": { "iso_3166_2": "RU-LIP", "name_ru": "Липецкая область" }, "geometry": { "type": "Point", "coordinates": [ -3175119.464212154969573, -2583616.437999544665217 ] } },
{ "type": "Feature", "properties": { "iso_3166_2": "RU-TAM", "name_ru": "Тамбовская область" }, "geometry": { "type": "Point", "coordinates": [ -3058783.844946950208396, -2714007.084413574077189 ] } },
{ "type": "Feature", "properties": { "iso_3166_2": "RU-TOM", "name_ru": "Томская область" }, "geometry": { "type": "Point", "coordinates": [ -474819.216147642116994, -3438588.439035188872367 ] } },
{ "type": "Feature", "properties": { "iso_3166_2": "RU-TA", "name_ru": "Татарстан" }, "geometry": { "type": "Point", "coordinates": [ -2399885.220319625921547, -2954282.317453164607286 ] } },
{ "type": "Feature", "properties": { "iso_3166_2": "RU-ULY", "name_ru": "Ульяновская область" }, "geometry": { "type": "Point", "coordinates": [ -2653217.50809475639835, -2941912.376105345785618 ] } },
{ "type": "Feature", "properties": { "iso_3166_2": "RU-PNZ", "name_ru": "Пензенская область" }, "geometry": { "type": "Point", "coordinates": [ -2871670.276084061246365, -2835614.198995325248688 ] } },
{ "type": "Feature", "properties": { "iso_3166_2": "RU-KEM", "name_ru": "Кемеровская область" }, "geometry": { "type": "Point", "coordinates": [ -187823.978640699060634, -3861592.32418780727312 ] } },
{ "type": "Feature", "properties": { "iso_3166_2": "RU-ORL", "name_ru": "Орловская область" }, "geometry": { "type": "Point", "coordinates": [ -3280573.341778225731105, -2424618.041480857413262 ] } },
{ "type": "Feature", "properties": { "iso_3166_2": "RU-IRK", "name_ru": "Иркутская область" }, "geometry": { "type": "Point", "coordinates": [ 1020064.86596611852292, -3474775.763966199476272 ] } },
{ "type": "Feature", "properties": { "iso_3166_2": "RU-KK", "name_ru": "Хакасия" }, "geometry": { "type": "Point", "coordinates": [ -10182.507984532125192, -4017464.883506644517183 ] } },
{ "type": "Feature", "properties": { "iso_3166_2": "RU-MO", "name_ru": "Мордовия" }, "geometry": { "type": "Point", "coordinates": [ -2792314.920403030700982, -2738790.928172498941422 ] } },
{ "type": "Feature", "properties": { "iso_3166_2": "RU-KLU", "name_ru": "Калужская область" }, "geometry": { "type": "Point", "coordinates": [ -3186859.230902929790318, -2267951.223203381989151 ] } },
{ "type": "Feature", "properties": { "iso_3166_2": "RU-KOS", "name_ru": "Костромская область" }, "geometry": { "type": "Point", "coordinates": [ -2508700.626038038171828, -2404912.169011740479618 ] } },
{ "type": "Feature", "properties": { "iso_3166_2": "RU-YAR", "name_ru": "Ярославская область" }, "geometry": { "type": "Point", "coordinates": [ -2744683.174698622431606, -2233324.925101485103369 ] } },
{ "type": "Feature", "properties": { "iso_3166_2": "RU-VLA", "name_ru": "Владимирская область" }, "geometry": { "type": "Point", "coordinates": [ -2834695.831552001647651, -2434816.080876436084509 ] } },
{ "type": "Feature", "properties": { "iso_3166_2": "RU-RYA", "name_ru": "Рязанская область" }, "geometry": { "type": "Point", "coordinates": [ -2972118.275975048076361, -2549310.352438943926245 ] } },
{ "type": "Feature", "properties": { "iso_3166_2": "RU-IVA", "name_ru": "Ивановская область" }, "geometry": { "type": "Point", "coordinates": [ -2709676.679347395896912, -2415040.235512906685472 ] } },
{ "type": "Feature", "properties": { "iso_3166_2": "RU-NIZ", "name_ru": "Нижегородская область" }, "geometry": { "type": "Point", "coordinates": [ -2637672.077358783688396, -2604665.951488581951708 ] } },
{ "type": "Feature", "properties": { "iso_3166_2": "RU-TUL", "name_ru": "Тульская область" }, "geometry": { "type": "Point", "coordinates": [ -3140585.230264152865857, -2414908.90239294571802 ] } },
{ "type": "Feature", "properties": { "iso_3166_2": "RU-CU", "name_ru": "Чувашия" }, "geometry": { "type": "Point", "coordinates": [ -2581691.859144452027977, -2777069.171084596775472 ] } },
{ "type": "Feature", "properties": { "iso_3166_2": "RU-VLG", "name_ru": "Вологодская область" }, "geometry": { "type": "Point", "coordinates": [ -2519457.801344288978726, -2151793.122924632392824 ] } },
{ "type": "Feature", "properties": { "iso_3166_2": "RU-NGR", "name_ru": "Новгородская область" }, "geometry": { "type": "Point", "coordinates": [ -2945488.186649720184505, -1875239.67143339687027 ] } },
{ "type": "Feature", "properties": { "iso_3166_2": "RU-TVE", "name_ru": "Тверская область" }, "geometry": { "type": "Point", "coordinates": [ -2977039.435830369126052, -2062496.543946304824203 ] } },
{ "type": "Feature", "properties": { "iso_3166_2": "RU-MOW", "name_ru": "Московская область" }, "geometry": { "type": "Point", "coordinates": [ -2987018.259198661427945, -2305833.949710361659527 ] } },
{ "type": "Feature", "properties": { "iso_3166_2": "RU-MOS", "name_ru": "Москва" }, "geometry": { "type": "Point", "coordinates": [ -3013401.942545875441283, -2300804.486179939936846 ] } },
{ "type": "Feature", "properties": { "iso_3166_2": "RU-ME", "name_ru": "Марий Эл" }, "geometry": { "type": "Point", "coordinates": [ -2462675.489462909754366, -2729276.42778682988137 ] } },
{ "type": "Feature", "properties": { "iso_3166_2": "RU-KIR", "name_ru": "Кировская область" }, "geometry": { "type": "Point", "coordinates": [ -2226092.113480042666197, -2637051.776232997421175 ] } },
{ "type": "Feature", "properties": { "iso_3166_2": "RU-UD", "name_ru": "Удмуртия" }, "geometry": { "type": "Point", "coordinates": [ -2184885.859368140809238, -2877145.751396947074682 ] } },
{ "type": "Feature", "properties": { "iso_3166_2": "RU-KO", "name_ru": "Республика Коми" }, "geometry": { "type": "Point", "coordinates": [ -1651211.348775937687606, -2339303.043767572846264 ] } },
{ "type": "Feature", "properties": { "iso_3166_2": "RU-PER", "name_ru": "Пермский край" }, "geometry": { "type": "Point", "coordinates": [ -1892822.312469017226249, -2830182.854601924307644 ] } },
{ "type": "Feature", "properties": { "iso_3166_2": "RU-SAM", "name_ru": "Самарская область" }, "geometry": { "type": "Point", "coordinates": [ -2562893.564228570554405, -3105569.00463098147884 ] } },
{ "type": "Feature", "properties": { "iso_3166_2": "RU-STA", "name_ru": "Ставропольский край" }, "geometry": { "type": "Point", "coordinates": [ -3558833.099419413600117, -3359762.323123732116073 ] } },
{ "type": "Feature", "properties": { "iso_3166_2": "RU-AD", "name_ru": "Адыгея" }, "geometry": { "type": "Point", "coordinates": [ -3780887.585514418315142, -3169591.530514989048243 ] } }
]
}
